STARLINK-35142          
1 65434U 25194A   26048.15283451  .00001393  00000+0  10074-3 0  9992
2 65434  97.6013 264.0765 0001508  49.2870 310.8487 15.05655444 26552
STARLINK-34978          
1 65435U 25194B   26048.17223090  .00004107  00000+0  28863-3 0  9999
2 65435  97.6021 264.2223 0002378  77.2830 282.8663 15.05656205 26567
STARLINK-35043          
1 65436U 25194C   26048.15257708  .00007207  00000+0  56479-3 0  9999
2 65436  97.6033 265.0800 0001840  93.5301 266.6134 15.01281241 26617
STARLINK-35080          
1 65437U 25194D   26048.17776159 -.00001994  00000+0 -13397-3 0  9999
2 65437  97.6027 264.2164 0002652  84.9036 275.2493 15.05657739 26567
STARLINK-35068          
1 65438U 25194E   26048.15839659  .00021692  00000+0  15033-2 0  9996
2 65438  97.6015 264.0852 0001687 125.3073 234.8312 15.05641171 26558
STARLINK-35045          
1 65439U 25194F   26048.05315793  .00004955  00000+0  34731-3 0  9994
2 65439  97.6028 264.0707 0002427  85.0081 275.1422 15.05653638 26546
STARLINK-35050          
1 65440U 25194G   26048.16669699  .00004429  00000+0  31087-3 0  9992
2 65440  97.6012 264.2279 0002574  66.0319 294.1177 15.05662281 26567
STARLINK-35065          
1 65441U 25194H   26048.14730105  .00003423  00000+0  24131-3 0  9997
2 65441  97.6016 264.1000 0002237  81.9657 278.1824 15.05653520 26556
STARLINK-34679          
1 65442U 25194J   26048.17501726  .00008019  00000+0  55952-3 0  9997
2 65442  97.6025 264.2198 0002255  87.0781 273.0704 15.05636962 26564
STARLINK-34678          
1 65443U 25194K   26048.14176878  .00006693  00000+0  46742-3 0  9994
2 65443  97.6022 264.1077 0001678  79.1255 281.0161 15.05663922 26554
STARLINK-35049          
1 65444U 25194L   26048.06146185  .00005519  00000+0  38629-3 0  9995
2 65444  97.6031 264.0608 0002171  72.1121 288.0342 15.05660086 26543
STARLINK-35029          
1 65445U 25194M   26048.05592494  .00006427  00000+0  44907-3 0  9998
2 65445  97.6033 264.0676 0002017  77.1772 282.9680 15.05660514 26541
STARLINK-34991          
1 65446U 25194N   26048.04760843  .00004788  00000+0  33564-3 0  9998
2 65446  97.6048 264.0819 0001279 107.8336 252.3030 15.05671784 26544
STARLINK-34920          
1 65447U 25194P   26048.16946234  .00002632  00000+0  18654-3 0  9991
2 65447  97.6015 264.2242 0002362  74.4612 285.6875 15.05652089 26566
STARLINK-35030          
1 65448U 25194Q   26048.13345788  .00004346  00000+0  30519-3 0  9994
2 65448  97.6028 264.1182 0002072  69.9000 290.2450 15.05654218 26557
STARLINK-35009          
1 65449U 25194R   26047.56303435  .00005134  00000+0  35956-3 0  9990
2 65449  97.6013 263.6474 0001949  60.7050 299.4371 15.05670692 26474
STARLINK-34970          
1 65450U 25194S   26048.15560217  .00000451  00000+0  35447-4 0  9994
2 65450  97.6007 264.0894 0001492  72.6166 287.5224 15.05650744 26553
