[{"OBJECT_NAME":"STARLINK-35142","OBJECT_ID":"2025-194A","EPOCH":"2026-02-17T03:40:04.901664","MEAN_MOTION":15.05655444,"ECCENTRICITY":0.0001508,"INCLINATION":97.6013,"RA_OF_ASC_NODE":264.0765,"ARG_OF_PERICENTER":49.287,"MEAN_ANOMALY":310.8487,"EPHEMERIS_TYPE":0,"CLASSIFICATION_TYPE":"U","NORAD_CAT_ID":65434,"ELEMENT_SET_NO":999,"REV_AT_EPOCH":2655,"BSTAR":0.00010074,"MEAN_MOTION_DOT":1.393e-5,"MEAN_MOTION_DDOT":0},{"OBJECT_NAME":"STARLINK-34978","OBJECT_ID":"2025-194B","EPOCH":"2026-02-17T04:08:00.749760","MEAN_MOTION":15.05656205,"ECCENTRICITY":0.0002378,"INCLINATION":97.6021,"RA_OF_ASC_NODE":264.2223,"ARG_OF_PERICENTER":77.283,"MEAN_ANOMALY":282.8663,"EPHEMERIS_TYPE":0,"CLASSIFICATION_TYPE":"U","NORAD_CAT_ID":65435,"ELEMENT_SET_NO":999,"REV_AT_EPOCH":2656,"BSTAR":0.00028863,"MEAN_MOTION_DOT":4.107e-5,"MEAN_MOTION_DDOT":0},{"OBJECT_NAME":"STARLINK-35043","OBJECT_ID":"2025-194C","EPOCH":"2026-02-17T03:39:42.659712","MEAN_MOTION":15.01281241,"ECCENTRICITY":0.000184,"INCLINATION":97.6033,"RA_OF_ASC_NODE":265.08,"ARG_OF_PERICENTER":93.5301,"MEAN_ANOMALY":266.6134,"EPHEMERIS_TYPE":0,"CLASSIFICATION_TYPE":"U","NORAD_CAT_ID":65436,"ELEMENT_SET_NO":999,"REV_AT_EPOCH":2661,"BSTAR":0.00056479,"MEAN_MOTION_DOT":7.207e-5,"MEAN_MOTION_DDOT":0},{"OBJECT_NAME":"STARLINK-35080","OBJECT_ID":"2025-194D","EPOCH":"2026-02-17T04:15:58.601376","MEAN_MOTION":15.05657739,"ECCENTRICITY":0.0002652,"INCLINATION":97.6027,"RA_OF_ASC_NODE":264.2164,"ARG_OF_PERICENTER":84.9036,"MEAN_ANOMALY":275.2493,"EPHEMERIS_TYPE":0,"CLASSIFICATION_TYPE":"U","NORAD_CAT_ID":65437,"ELEMENT_SET_NO":999,"REV_AT_EPOCH":2656,"BSTAR":-0.00013397,"MEAN_MOTION_DOT":-1.994e-5,"MEAN_MOTION_DDOT":0},{"OBJECT_NAME":"STARLINK-35068","OBJECT_ID":"2025-194E","EPOCH":"2026-02-17T03:48:05.465376","MEAN_MOTION":15.05641171,"ECCENTRICITY":0.0001687,"INCLINATION":97.6015,"RA_OF_ASC_NODE":264.0852,"ARG_OF_PERICENTER":125.3073,"MEAN_ANOMALY":234.8312,"EPHEMERIS_TYPE":0,"CLASSIFICATION_TYPE":"U","NORAD_CAT_ID":65438,"ELEMENT_SET_NO":999,"REV_AT_EPOCH":2655,"BSTAR":0.0015033,"MEAN_MOTION_DOT":0.00021692,"MEAN_MOTION_DDOT":0},{"OBJECT_NAME":"STARLINK-35045","OBJECT_ID":"2025-194F","EPOCH":"2026-02-17T01:16:32.845152","MEAN_MOTION":15.05653638,"ECCENTRICITY":0.0002427,"INCLINATION":97.6028,"RA_OF_ASC_NODE":264.0707,"ARG_OF_PERICENTER":85.0081,"MEAN_ANOMALY":275.1422,"EPHEMERIS_TYPE":0,"CLASSIFICATION_TYPE":"U","NORAD_CAT_ID":65439,"ELEMENT_SET_NO":999,"REV_AT_EPOCH":2654,"BSTAR":0.00034731,"MEAN_MOTION_DOT":4.955e-5,"MEAN_MOTION_DDOT":0},{"OBJECT_NAME":"STARLINK-35050","OBJECT_ID":"2025-194G","EPOCH":"2026-02-17T04:00:02.619936","MEAN_MOTION":15.05662281,"ECCENTRICITY":0.0002574,"INCLINATION":97.6012,"RA_OF_ASC_NODE":264.2279,"ARG_OF_PERICENTER":66.0319,"MEAN_ANOMALY":294.1177,"EPHEMERIS_TYPE":0,"CLASSIFICATION_TYPE":"U","NORAD_CAT_ID":65440,"ELEMENT_SET_NO":999,"REV_AT_EPOCH":2656,"BSTAR":0.00031087,"MEAN_MOTION_DOT":4.429e-5,"MEAN_MOTION_DDOT":0},{"OBJECT_NAME":"STARLINK-35065","OBJECT_ID":"2025-194H","EPOCH":"2026-02-17T03:32:06.810720","MEAN_MOTION":15.0565352,"ECCENTRICITY":0.0002237,"INCLINATION":97.6016,"RA_OF_ASC_NODE":264.1,"ARG_OF_PERICENTER":81.9657,"MEAN_ANOMALY":278.1824,"EPHEMERIS_TYPE":0,"CLASSIFICATION_TYPE":"U","NORAD_CAT_ID":65441,"ELEMENT_SET_NO":999,"REV_AT_EPOCH":2655,"BSTAR":0.00024131,"MEAN_MOTION_DOT":3.423e-5,"MEAN_MOTION_DDOT":0},{"OBJECT_NAME":"STARLINK-34679","OBJECT_ID":"2025-194J","EPOCH":"2026-02-17T04:12:01.491264","MEAN_MOTION":15.05636962,"ECCENTRICITY":0.0002255,"INCLINATION":97.6025,"RA_OF_ASC_NODE":264.2198,"ARG_OF_PERICENTER":87.0781,"MEAN_ANOMALY":273.0704,"EPHEMERIS_TYPE":0,"CLASSIFICATION_TYPE":"U","NORAD_CAT_ID":65442,"ELEMENT_SET_NO":999,"REV_AT_EPOCH":2656,"BSTAR":0.00055952,"MEAN_MOTION_DOT":8.019e-5,"MEAN_MOTION_DDOT":0},{"OBJECT_NAME":"STARLINK-34678","OBJECT_ID":"2025-194K","EPOCH":"2026-02-17T03:24:08.822592","MEAN_MOTION":15.05663922,"ECCENTRICITY":0.0001678,"INCLINATION":97.6022,"RA_OF_ASC_NODE":264.1077,"ARG_OF_PERICENTER":79.1255,"MEAN_ANOMALY":281.0161,"EPHEMERIS_TYPE":0,"CLASSIFICATION_TYPE":"U","NORAD_CAT_ID":65443,"ELEMENT_SET_NO":999,"REV_AT_EPOCH":2655,"BSTAR":0.00046742,"MEAN_MOTION_DOT":6.693e-5,"MEAN_MOTION_DDOT":0},{"OBJECT_NAME":"STARLINK-35049","OBJECT_ID":"2025-194L","EPOCH":"2026-02-17T01:28:30.303840","MEAN_MOTION":15.05660086,"ECCENTRICITY":0.0002171,"INCLINATION":97.6031,"RA_OF_ASC_NODE":264.0608,"ARG_OF_PERICENTER":72.1121,"MEAN_ANOMALY":288.0342,"EPHEMERIS_TYPE":0,"CLASSIFICATION_TYPE":"U","NORAD_CAT_ID":65444,"ELEMENT_SET_NO":999,"REV_AT_EPOCH":2654,"BSTAR":0.00038629,"MEAN_MOTION_DOT":5.519e-5,"MEAN_MOTION_DDOT":0},{"OBJECT_NAME":"STARLINK-35029","OBJECT_ID":"2025-194M","EPOCH":"2026-02-17T01:20:31.914816","MEAN_MOTION":15.05660514,"ECCENTRICITY":0.0002017,"INCLINATION":97.6033,"RA_OF_ASC_NODE":264.0676,"ARG_OF_PERICENTER":77.1772,"MEAN_ANOMALY":282.968,"EPHEMERIS_TYPE":0,"CLASSIFICATION_TYPE":"U","NORAD_CAT_ID":65445,"ELEMENT_SET_NO":999,"REV_AT_EPOCH":2654,"BSTAR":0.00044907,"MEAN_MOTION_DOT":6.427e-5,"MEAN_MOTION_DDOT":0},{"OBJECT_NAME":"STARLINK-34991","OBJECT_ID":"2025-194N","EPOCH":"2026-02-17T01:08:33.368352","MEAN_MOTION":15.05671784,"ECCENTRICITY":0.0001279,"INCLINATION":97.6048,"RA_OF_ASC_NODE":264.0819,"ARG_OF_PERICENTER":107.8336,"MEAN_ANOMALY":252.303,"EPHEMERIS_TYPE":0,"CLASSIFICATION_TYPE":"U","NORAD_CAT_ID":65446,"ELEMENT_SET_NO":999,"REV_AT_EPOCH":2654,"BSTAR":0.00033564,"MEAN_MOTION_DOT":4.788e-5,"MEAN_MOTION_DDOT":0},{"OBJECT_NAME":"STARLINK-34920","OBJECT_ID":"2025-194P","EPOCH":"2026-02-17T04:04:01.546176","MEAN_MOTION":15.05652089,"ECCENTRICITY":0.0002362,"INCLINATION":97.6015,"RA_OF_ASC_NODE":264.2242,"ARG_OF_PERICENTER":74.4612,"MEAN_ANOMALY":285.6875,"EPHEMERIS_TYPE":0,"CLASSIFICATION_TYPE":"U","NORAD_CAT_ID":65447,"ELEMENT_SET_NO":999,"REV_AT_EPOCH":2656,"BSTAR":0.00018654,"MEAN_MOTION_DOT":2.632e-5,"MEAN_MOTION_DDOT":0},{"OBJECT_NAME":"STARLINK-35030","OBJECT_ID":"2025-194Q","EPOCH":"2026-02-17T03:12:10.760832","MEAN_MOTION":15.05654218,"ECCENTRICITY":0.0002072,"INCLINATION":97.6028,"RA_OF_ASC_NODE":264.1182,"ARG_OF_PERICENTER":69.9,"MEAN_ANOMALY":290.245,"EPHEMERIS_TYPE":0,"CLASSIFICATION_TYPE":"U","NORAD_CAT_ID":65448,"ELEMENT_SET_NO":999,"REV_AT_EPOCH":2655,"BSTAR":0.00030519,"MEAN_MOTION_DOT":4.346e-5,"MEAN_MOTION_DDOT":0},{"OBJECT_NAME":"STARLINK-35009","OBJECT_ID":"2025-194R","EPOCH":"2026-02-16T13:30:46.167840","MEAN_MOTION":15.05670692,"ECCENTRICITY":0.00019491,"INCLINATION":97.6013,"RA_OF_ASC_NODE":263.6474,"ARG_OF_PERICENTER":60.705,"MEAN_ANOMALY":299.4371,"EPHEMERIS_TYPE":0,"CLASSIFICATION_TYPE":"U","NORAD_CAT_ID":65449,"ELEMENT_SET_NO":999,"REV_AT_EPOCH":2647,"BSTAR":0.00035955552,"MEAN_MOTION_DOT":5.134e-5,"MEAN_MOTION_DDOT":0},{"OBJECT_NAME":"STARLINK-34970","OBJECT_ID":"2025-194S","EPOCH":"2026-02-17T03:44:04.027488","MEAN_MOTION":15.05650744,"ECCENTRICITY":0.0001492,"INCLINATION":97.6007,"RA_OF_ASC_NODE":264.0894,"ARG_OF_PERICENTER":72.6166,"MEAN_ANOMALY":287.5224,"EPHEMERIS_TYPE":0,"CLASSIFICATION_TYPE":"U","NORAD_CAT_ID":65450,"ELEMENT_SET_NO":999,"REV_AT_EPOCH":2655,"BSTAR":3.5447e-5,"MEAN_MOTION_DOT":4.51e-6,"MEAN_MOTION_DDOT":0}]
